[{"OBJECT_NAME":"STARLINK-32344","OBJECT_ID":"2024-196N","EPOCH":"2026-03-09T19:36:49.140288","MEAN_MOTION":15.30191289,"ECCENTRICITY":0.00010879,"INCLINATION":53.1596,"RA_OF_ASC_NODE":100.9223,"ARG_OF_PERICENTER":90.1575,"MEAN_ANOMALY":269.955,"EPHEMERIS_TYPE":0,"CLASSIFICATION_TYPE":"U","NORAD_CAT_ID":61719,"ELEMENT_SET_NO":999,"REV_AT_EPOCH":7717,"BSTAR":2.1491147e-5,"MEAN_MOTION_DOT":2.77e-6,"MEAN_MOTION_DDOT":0},{"OBJECT_NAME":"CZ-4B DEB","OBJECT_ID":"2006-015E","EPOCH":"2026-03-09T20:34:53.082912","MEAN_MOTION":15.19885806,"ECCENTRICITY":0.00461993,"INCLINATION":98.0565,"RA_OF_ASC_NODE":201.7753,"ARG_OF_PERICENTER":62.4887,"MEAN_ANOMALY":298.1031,"EPHEMERIS_TYPE":0,"CLASSIFICATION_TYPE":"U","NORAD_CAT_ID":29538,"ELEMENT_SET_NO":999,"REV_AT_EPOCH":5389,"BSTAR":0.0022587151,"MEAN_MOTION_DOT":0.00050103,"MEAN_MOTION_DDOT":0}]
